[{"OBJECT_NAME":"QIANFAN-103","OBJECT_ID":"2025-233N","EPOCH":"2026-03-15T06:30:18.181728","MEAN_MOTION":13.51006916,"ECCENTRICITY":0.00020533,"INCLINATION":88.9952,"RA_OF_ASC_NODE":52.6803,"ARG_OF_PERICENTER":90.6685,"MEAN_ANOMALY":269.4701,"EPHEMERIS_TYPE":0,"CLASSIFICATION_TYPE":"U","NORAD_CAT_ID":66045,"ELEMENT_SET_NO":999,"REV_AT_EPOCH":2050,"BSTAR":8.0727693e-5,"MEAN_MOTION_DOT":6.4e-7,"MEAN_MOTION_DDOT":0},{"OBJECT_NAME":"QIANFAN-104","OBJECT_ID":"2025-233P","EPOCH":"2026-03-15T06:35:52.508256","MEAN_MOTION":13.51011112,"ECCENTRICITY":0.00021284,"INCLINATION":88.9956,"RA_OF_ASC_NODE":52.5778,"ARG_OF_PERICENTER":83.7482,"MEAN_ANOMALY":276.3912,"EPHEMERIS_TYPE":0,"CLASSIFICATION_TYPE":"U","NORAD_CAT_ID":66046,"ELEMENT_SET_NO":999,"REV_AT_EPOCH":2055,"BSTAR":7.8588321e-5,"MEAN_MOTION_DOT":6.3e-7,"MEAN_MOTION_DDOT":0},{"OBJECT_NAME":"QIANFAN-105","OBJECT_ID":"2025-233Q","EPOCH":"2026-03-15T06:47:55.989024","MEAN_MOTION":13.50982311,"ECCENTRICITY":0.00022048,"INCLINATION":88.997,"RA_OF_ASC_NODE":52.4075,"ARG_OF_PERICENTER":89.634,"MEAN_ANOMALY":270.5064,"EPHEMERIS_TYPE":0,"CLASSIFICATION_TYPE":"U","NORAD_CAT_ID":66047,"ELEMENT_SET_NO":999,"REV_AT_EPOCH":2066,"BSTAR":7.2596731e-5,"MEAN_MOTION_DOT":5.9e-7,"MEAN_MOTION_DDOT":0},{"OBJECT_NAME":"QIANFAN-106","OBJECT_ID":"2025-233R","EPOCH":"2026-03-15T06:42:05.636160","MEAN_MOTION":13.51005914,"ECCENTRICITY":0.00024009,"INCLINATION":88.9938,"RA_OF_ASC_NODE":52.6503,"ARG_OF_PERICENTER":80.9442,"MEAN_ANOMALY":279.1981,"EPHEMERIS_TYPE":0,"CLASSIFICATION_TYPE":"U","NORAD_CAT_ID":66048,"ELEMENT_SET_NO":999,"REV_AT_EPOCH":2051,"BSTAR":5.3605345e-5,"MEAN_MOTION_DOT":4.7e-7,"MEAN_MOTION_DDOT":0},{"OBJECT_NAME":"QIANFAN-107","OBJECT_ID":"2025-233S","EPOCH":"2026-03-15T06:54:00.485568","MEAN_MOTION":13.51003931,"ECCENTRICITY":0.00020619,"INCLINATION":88.9954,"RA_OF_ASC_NODE":52.667,"ARG_OF_PERICENTER":89.8511,"MEAN_ANOMALY":270.2877,"EPHEMERIS_TYPE":0,"CLASSIFICATION_TYPE":"U","NORAD_CAT_ID":66049,"ELEMENT_SET_NO":999,"REV_AT_EPOCH":2051,"BSTAR":6.6395022e-5,"MEAN_MOTION_DOT":5.5e-7,"MEAN_MOTION_DDOT":0},{"OBJECT_NAME":"QIANFAN-108","OBJECT_ID":"2025-233T","EPOCH":"2026-03-15T06:59:54.182112","MEAN_MOTION":13.51005334,"ECCENTRICITY":0.00023509,"INCLINATION":88.9947,"RA_OF_ASC_NODE":52.661,"ARG_OF_PERICENTER":80.9953,"MEAN_ANOMALY":279.1464,"EPHEMERIS_TYPE":0,"CLASSIFICATION_TYPE":"U","NORAD_CAT_ID":66050,"ELEMENT_SET_NO":999,"REV_AT_EPOCH":2051,"BSTAR":5.5781754e-5,"MEAN_MOTION_DOT":4.8e-7,"MEAN_MOTION_DDOT":0}]
