QIANFAN-103             
1 66045U 25233N   26074.27104377  .00000064  00000+0  80728-4 0  9994
2 66045  88.9952  52.6803 0002053  90.6685 269.4701 13.51006916 20500
QIANFAN-104             
1 66046U 25233P   26074.27491329  .00000063  00000+0  78588-4 0  9991
2 66046  88.9956  52.5778 0002128  83.7482 276.3912 13.51011112 20556
QIANFAN-105             
1 66047U 25233Q   26074.28328691  .00000059  00000+0  72597-4 0  9993
2 66047  88.9970  52.4075 0002204  89.6340 270.5064 13.50982311 20668
QIANFAN-106             
1 66048U 25233R   26074.27923190  .00000047  00000+0  53605-4 0  9994
2 66048  88.9938  52.6503 0002400  80.9442 279.1981 13.51005914 20519
QIANFAN-107             
1 66049U 25233S   26074.28750562  .00000055  00000+0  66395-4 0  9996
2 66049  88.9954  52.6670 0002061  89.8511 270.2877 13.51003931 20514
QIANFAN-108             
1 66050U 25233T   26074.29159933  .00000048  00000+0  55782-4 0  9994
2 66050  88.9947  52.6610 0002350  80.9953 279.1464 13.51005334 20514
